#aV2015  4 18  0  0  0.00000000     288 DD+AD WGS84 FIT  NGA
## 1840 518400.00000000   300.00000000 57130 0.0000000000000
+   30     1  2  3  4  5  6  7  9 10 11 12 13 14 15 16 17 18
+         19 20 21 22 23 24 25 27 28 29 30 31 32  0  0  0  0
+          0  0  0  0  0  0  0  0  0  0  0  0  0  0  0  0  0
+          0  0  0  0  0  0  0  0  0  0  0  0  0  0  0  0  0
+          0  0  0  0  0  0  0  0  0  0  0  0  0  0  0  0  0
++         2  2  2  2  2  2  2  2  2  2  2  2  2  2  2  2  2
++         2  2  2  2  2  2  2  2  2  2  2  2  2  0  0  0  0
++         0  0  0  0  0  0  0  0  0  0  0  0  0  0  0  0  0
++         0  0  0  0  0  0  0  0  0  0  0  0  0  0  0  0  0
++         0  0  0  0  0  0  0  0  0  0  0  0  0  0  0  0  0
%c cc cc ccc ccc cccc cccc cccc cccc ccccc ccccc ccccc ccccc
%c cc cc ccc ccc cccc cccc cccc cccc ccccc ccccc ccccc ccccc
%f  0.0000000  0.000000000  0.00000000000  0.000000000000000
%f  0.0000000  0.000000000  0.00000000000  0.000000000000000
%i    0    0    0    0      0      0      0      0         0
%i    0    0    0    0      0      0      0      0         0
/*      NGA, ST. LOUIS,MO.                                  
/*   EPHEMERIS COMPUTED FROM  1 DAYS OF DATA                
/*   EPOCHA SMOOTHER                                       
/* CCCCCCCCCCCCCCCCCCCCCCCCCCCCCCCCCCCCCCCCCCCCCCCCCCCCCCCCC
*  2015  4 18  9 55  0.00000000
P  1 -10459.950926  21101.929762 -12143.763712     -6.639672                    
V  1 -13002.823008   8625.674326  26471.526268      0.004668                    
P  2  21259.079354 -13486.968739  -7327.460433    560.496212                    
V  2  -4461.189891   9619.050410 -29661.058285      0.023371                    
P  3  -1958.155389  15254.268990 -21640.915290    300.275754                    
V  3 -26388.123847  -7787.538677  -3140.694160      0.132567                    
P  4 -16922.951411  19994.422718  -3730.443174    -11.710498                    
V  4  -5700.008333    413.546533  30964.561752     -0.011236                    
P  5  20566.319245  -5745.327980  15857.753517   -252.365758                    
V  5  18736.642692   7819.685745 -21221.429659      0.048051                    
P  6  18902.235107    156.835189 -18653.618455    138.793826                    
V  6 -16324.807581  17228.037590 -16405.140977      0.098025                    
P  7   2535.980815  16586.816552  20596.963030    456.146666                    
V  7 -20155.354736  16452.561393 -11176.135098      0.027187                    
P  9   7219.115991  25490.700243   1735.906164   -139.496887                    
V  9  -2340.219670   2825.276765 -31599.458608     -0.079304                    
P 10  24943.662382   9602.698728  -2232.737271   -171.376301                    
V 10  -3151.356559   2166.250686 -30890.110966     -0.015028                    
P 11  -9710.057888  24482.770860  -3342.873791   -572.225129                    
V 11  -6103.973633    996.770087  29852.147269     -0.026039                    
P 12   5388.491135 -13593.575933 -22263.225263    285.777234                    
V 12  26278.085699   9553.682387    746.226220      0.031234                    
P 13  12918.050943 -10334.661091  20659.276097   -106.721538                    
V 13   3802.778604  26236.561292  10550.561740     -0.033832                    
P 14 -14236.746332 -13943.578679 -17396.675548     70.005153                    
V 14  -1814.009696 -22465.905678  19081.864186     -0.028319                    
P 15   5798.438306 -20828.536409  15125.502886   -244.237979                    
V 15   7978.719778  18089.789820  22038.574215     -0.021718                    
P 16 -20967.247826   3349.690652  16120.248237   -137.555570                    
V 16 -18684.365444  -8239.466098 -22125.820300      0.036034                    
P 17  14168.375516  15159.303260 -16406.215865   -166.928616                    
V 17   2280.719830  21216.837302  20994.441675     -0.018693                    
P 18 -17484.340182 -15501.390009  13399.837288    394.826158                    
V 18  16317.127280   1854.210006  24027.689627      0.028959                    
P 19  -9417.676158  17710.171943  16982.472416   -507.698917                    
V 19  -4817.452944 -21638.620949  20136.807458     -0.012129                    
P 20  25141.260790   -801.853492   8562.844895    311.419849                    
V 20  10053.859235   5909.670151 -28282.114518      0.037754                    
P 21  -7064.675054 -15102.027930  21321.022349   -437.726332                    
V 21  19090.010708 -17151.030599  -6400.178803     -0.037053                    
P 22 -24710.928622  -9570.060520   3121.334237    341.001100                    
V 22   4595.350137  -2609.171913  30456.676444      0.040838                    
P 23   -331.232939  25014.464947  -8097.881720   -102.667617                    
V 23  -5589.557217  -9622.876267 -29426.317629     -0.024990                    
P 24  12573.299468 -21333.759976  -9438.945300    -46.825819                    
V 24  10631.782730  -6239.243609  28514.317026     -0.006787                    
P 25  -8931.793830 -16243.318513 -19178.886063    -20.833583                    
V 25  23289.215733   6090.601118 -15919.438866     -0.035039                    
P 27 -13554.687416   7425.564846  21576.209917     65.819459                    
V 27  -6680.245112 -26598.213877   5062.029153      0.026757                    
P 28  21765.809581  13669.756544   7488.501102    433.793636                    
V 28  -8635.475483  -1586.454633  30447.213999      0.026353                    
P 29  -3953.924615 -26277.951737   -894.651614    605.035077                    
V 29   2560.818841    737.682707 -31955.986137      0.022881                    
P 30  12431.747333   9469.170433  21470.833444    -70.086631                    
V 30 -21078.407983  17353.407303   4492.548363      0.040407                    
P 31 -20514.496853   2867.719942 -16688.738582    318.297310                    
V 31  15142.145007 -15001.063993 -20695.346010     -0.009825                    
P 32 -16561.680966   8054.731978 -18954.788358   -173.113304                    
V 32 -21859.507759 -10695.203893  15101.483537      0.095309                    
EOF
